#aV2015  8 17  0  0  0.00000000     288 DD+AD WGS84 FIT  NGA
## 1858  86400.00000000   300.00000000 57251 0.0000000000000
+   31     1  2  3  4  5  6  7  8  9 11 12 13 14 15 16 17 18
+         19 20 21 22 23 24 25 26 27 28 29 30 31 32  0  0  0
+          0  0  0  0  0  0  0  0  0  0  0  0  0  0  0  0  0
+          0  0  0  0  0  0  0  0  0  0  0  0  0  0  0  0  0
+          0  0  0  0  0  0  0  0  0  0  0  0  0  0  0  0  0
++         2  2  2  2  2  2  2  2  2  2  2  2  2  2  2  2  2
++         2  2  2  2  2  2  2  2  2  2  2  2  2  2  0  0  0
++         0  0  0  0  0  0  0  0  0  0  0  0  0  0  0  0  0
++         0  0  0  0  0  0  0  0  0  0  0  0  0  0  0  0  0
++         0  0  0  0  0  0  0  0  0  0  0  0  0  0  0  0  0
%c cc cc ccc ccc cccc cccc cccc cccc ccccc ccccc ccccc ccccc
%c cc cc ccc ccc cccc cccc cccc cccc ccccc ccccc ccccc ccccc
%f  0.0000000  0.000000000  0.00000000000  0.000000000000000
%f  0.0000000  0.000000000  0.00000000000  0.000000000000000
%i    0    0    0    0      0      0      0      0         0
%i    0    0    0    0      0      0      0      0         0
/*      NGA, ST. LOUIS,MO.                                  
/*   EPHEMERIS COMPUTED FROM  1 DAYS OF DATA                
/*   EPOCHA SMOOTHER                                       
/* CCCCCCCCCCCCCCCCCCCCCCCCCCCCCCCCCCCCCCCCCCCCCCCCCCCCCCCCC
*  2015  8 17  7 20  0.00000000
P  1 -20142.781307  -9382.189460  14634.391207     -1.115035                    
V  1  -9874.916838 -15890.235040 -23478.425392      0.006443                    
P  2  13499.684655  22526.030285   5696.474292    584.437081                    
V  2  -6506.490641  -3270.220131  29947.078653      0.019642                    
P  3 -16194.967492    729.550806  21055.853661     16.624747                    
V  3   9279.107461 -25053.410025   7982.692977      0.027967                    
P  4 -19632.748205 -16823.646213   6315.706249    -11.001609                    
V  4  -2881.928835  -8513.198167 -29754.498786     -0.035993                    
P  5   5681.943520  19411.811089 -17168.348236   -205.672553                    
V  5  -9886.109044  19557.070347  19088.864311      0.041730                    
P  6   3341.637846  21446.652840  15311.728902     39.429973                    
V  6 -13570.155635 -14055.140665  22635.932335      0.077386                    
P  7 -14642.432618   5038.873646 -21508.048659    480.354476                    
V  7 -16219.848203 -22215.828973   5426.584841      0.019621                    
P  8 -22476.332240  -5790.104088 -12853.810247     -2.024488                    
V  8  15887.199987  -4687.856808 -25598.184280     -0.012809                    
P  9 -24563.331706   8038.143691  -6172.139384    -10.992187                    
V  9  -8161.924632  -1646.087264  30337.958364     -0.003055                    
P 11 -24093.235487  -9042.085592   6244.055416   -598.395895                    
V 11  -4918.068324  -8542.985618 -28726.791029     -0.023813                    
P 12  14518.795316   2858.291780  21931.353241    319.637102                    
V 12 -11344.880915  25649.370168   4351.364154      0.033998                    
P 13  13148.952029  12757.879186 -19320.747875   -141.696420                    
V 13 -24206.888256   1933.415791 -15414.205677     -0.031127                    
P 14  12084.950054 -14096.575090  19183.833181     41.213561                    
V 14  23904.923538   -248.383120 -15597.796975     -0.026487                    
P 15  22899.518178   5216.699143 -12802.656320   -266.510393                    
V 15 -15236.088273   5743.958586 -24767.155643     -0.020691                    
P 16  -3503.304075 -19438.190373 -17651.183605    -96.567936                    
V 16  10856.921874 -19558.304867  19828.326014      0.041279                    
P 17 -10479.430682  14572.016997  19804.091514   -184.440354                    
V 17 -24527.301684   1272.495688 -14335.206084     -0.013982                    
P 18  15333.770476 -18527.935243 -10441.528745    426.160380                    
V 18  -1435.960977  14596.723170 -27009.660950      0.031424                    
P 19 -22190.906793  -7836.585808 -12981.919250   -518.450681                    
V 19  15831.759479  -2420.044316 -25611.641365     -0.007088                    
P 20  15799.737731   3067.317359 -21281.027541    347.626603                    
V 20  -7865.301502  25634.987583  -2074.328034      0.031377                    
P 21  12823.967729  -8677.376354 -20888.233108   -472.614482                    
V 21  17833.907206  21943.457559   1441.743350     -0.029567                    
P 22   8599.307303 -25017.353764    981.861472    382.085476                    
V 22   4233.193843    540.020787 -30972.136380      0.038044                    
P 23 -26068.418716   -914.445005   6286.854257   -127.669221                    
V 23   7239.129069  -3753.149023  29829.505060     -0.022866                    
P 24  20618.656720  11441.434485  12336.600566     -3.161151                    
V 24   8014.773653  13694.224136 -25872.353107     -0.005921                    
P 25  16834.242051 -11251.184324  16999.588691    -26.487281                    
V 25  -6670.833840  20818.751284  20420.126877     -0.048394                    
P 26   3153.233881 -24828.873274  -8889.439895    -28.974544                    
V 26   6559.182053  -9535.332633  28984.450941     -0.085238                    
P 27 -11137.155723 -12674.912907 -20568.278946     12.506012                    
V 27  25608.415559  -4596.824863 -10929.747281      0.028777                    
P 28 -12501.741616  23272.932647  -1611.699206    461.104710                    
V 28   -584.991031  -3406.381095 -32347.549396      0.026145                    
P 29  25697.336877  -5125.095867  -4189.230639    628.555797                    
V 29   5525.141075   1918.266831  31481.199174      0.020840                    
P 30  -6762.702746  15681.139096 -20327.263452      7.535377                    
V 30 -15330.629528 -20827.777568 -11048.933573      0.071116                    
P 31  -3503.822911 -21717.559415  14762.773615    306.127846                    
V 31  12590.460356  13868.210531  23921.704562     -0.013178                    
P 32  -9721.483556 -13757.657577  20611.011835    -70.139927                    
V 32  12306.818955 -23120.766738  -9074.674440      0.105768                    
EOF
